LEMUR-2-JINDRA
1 46909U 20081E   24002.53181842  .00021671  00000-0  86147-3 0  9995
2 46909  36.8974  67.8658 0006425 119.6444 240.4945 15.24526262173513
